<?xml version="1.0" encoding="UTF-8"?>
<gpx version="1.1" creator="LogiFlow Demo" xmlns="http://www.topografix.com/GPX/1/1">
  <trk>
    <name>v-001 Ruta Norte Bogotá</name>
    <trkseg>      <trkpt lat="4.74114" lon="-74.08112"></trkpt>
      <trkpt lat="4.74032" lon="-74.08146"></trkpt>
      <trkpt lat="4.73968" lon="-74.08146"></trkpt>
      <trkpt lat="4.73888" lon="-74.08104"></trkpt>
      <trkpt lat="4.73867" lon="-74.0809"></trkpt>
      <trkpt lat="4.73817" lon="-74.08065"></trkpt>
      <trkpt lat="4.73803" lon="-74.08057"></trkpt>
      <trkpt lat="4.73777" lon="-74.08021"></trkpt>
      <trkpt lat="4.73768" lon="-74.08008"></trkpt>
      <trkpt lat="4.73764" lon="-74.07998"></trkpt>
      <trkpt lat="4.73733" lon="-74.08014"></trkpt>
      <trkpt lat="4.73691" lon="-74.08048"></trkpt>
      <trkpt lat="4.73683" lon="-74.0805"></trkpt>
      <trkpt lat="4.73659" lon="-74.08016"></trkpt>
      <trkpt lat="4.73614" lon="-74.08039"></trkpt>
      <trkpt lat="4.73586" lon="-74.08056"></trkpt>
      <trkpt lat="4.73571" lon="-74.08064"></trkpt>
      <trkpt lat="4.73601" lon="-74.08096"></trkpt>
      <trkpt lat="4.73606" lon="-74.08111"></trkpt>
      <trkpt lat="4.73605" lon="-74.08124"></trkpt>
      <trkpt lat="4.736" lon="-74.08133"></trkpt>
      <trkpt lat="4.73528" lon="-74.08172"></trkpt>
      <trkpt lat="4.73503" lon="-74.08201"></trkpt>
      <trkpt lat="4.73498" lon="-74.0825"></trkpt>
      <trkpt lat="4.73505" lon="-74.08274"></trkpt>
      <trkpt lat="4.73518" lon="-74.08371"></trkpt>
      <trkpt lat="4.73543" lon="-74.08461"></trkpt>
      <trkpt lat="4.7356" lon="-74.08519"></trkpt>
      <trkpt lat="4.73526" lon="-74.08527"></trkpt>
      <trkpt lat="4.73477" lon="-74.08538"></trkpt>
      <trkpt lat="4.73385" lon="-74.08566"></trkpt>
      <trkpt lat="4.73323" lon="-74.08591"></trkpt>
      <trkpt lat="4.73232" lon="-74.08628"></trkpt>
      <trkpt lat="4.73055" lon="-74.08712"></trkpt>
      <trkpt lat="4.73028" lon="-74.08728"></trkpt>
      <trkpt lat="4.73008" lon="-74.08768"></trkpt>
      <trkpt lat="4.7296" lon="-74.08783"></trkpt>
      <trkpt lat="4.72837" lon="-74.08848"></trkpt>
      <trkpt lat="4.72786" lon="-74.08859"></trkpt>
      <trkpt lat="4.72761" lon="-74.0887"></trkpt>
      <trkpt lat="4.72784" lon="-74.08921"></trkpt>
      <trkpt lat="4.728" lon="-74.0896"></trkpt>
      <trkpt lat="4.7277" lon="-74.08973"></trkpt>
      <trkpt lat="4.727" lon="-74.08998"></trkpt>
      <trkpt lat="4.72596" lon="-74.09043"></trkpt>
      <trkpt lat="4.72565" lon="-74.09049"></trkpt>
      <trkpt lat="4.72506" lon="-74.09082"></trkpt>
      <trkpt lat="4.72453" lon="-74.09099"></trkpt>
      <trkpt lat="4.72303" lon="-74.09197"></trkpt>
      <trkpt lat="4.72067" lon="-74.09403"></trkpt>
      <trkpt lat="4.72036" lon="-74.09429"></trkpt>
      <trkpt lat="4.72026" lon="-74.09436"></trkpt>
      <trkpt lat="4.71989" lon="-74.09405"></trkpt>
      <trkpt lat="4.71913" lon="-74.09336"></trkpt>
      <trkpt lat="4.7184" lon="-74.09282"></trkpt>
      <trkpt lat="4.71757" lon="-74.09247"></trkpt>
      <trkpt lat="4.71699" lon="-74.09229"></trkpt>
      <trkpt lat="4.71595" lon="-74.09234"></trkpt>
      <trkpt lat="4.71434" lon="-74.09295"></trkpt>
      <trkpt lat="4.71184" lon="-74.09309"></trkpt>
      <trkpt lat="4.71108" lon="-74.09363"></trkpt>
      <trkpt lat="4.70917" lon="-74.09551"></trkpt>
      <trkpt lat="4.70671" lon="-74.09797"></trkpt>
      <trkpt lat="4.70498" lon="-74.09947"></trkpt>
      <trkpt lat="4.70277" lon="-74.10128"></trkpt>
      <trkpt lat="4.69973" lon="-74.10348"></trkpt>
      <trkpt lat="4.69829" lon="-74.10443"></trkpt>
      <trkpt lat="4.6974" lon="-74.10498"></trkpt>
      <trkpt lat="4.69697" lon="-74.10531"></trkpt>
      <trkpt lat="4.69691" lon="-74.1055"></trkpt>
      <trkpt lat="4.69724" lon="-74.1062"></trkpt>
      <trkpt lat="4.69839" lon="-74.10796"></trkpt>
      <trkpt lat="4.70066" lon="-74.11116"></trkpt>
      <trkpt lat="4.70242" lon="-74.11353"></trkpt>
      <trkpt lat="4.70311" lon="-74.11431"></trkpt>
      <trkpt lat="4.70337" lon="-74.11462"></trkpt>
      <trkpt lat="4.70351" lon="-74.11477"></trkpt>
      <trkpt lat="4.7039" lon="-74.11465"></trkpt>
      <trkpt lat="4.70426" lon="-74.11446"></trkpt>
      <trkpt lat="4.70391" lon="-74.11464"></trkpt>
      <trkpt lat="4.70357" lon="-74.1148"></trkpt>
      <trkpt lat="4.70365" lon="-74.11488"></trkpt>
      <trkpt lat="4.70378" lon="-74.11503"></trkpt>
      <trkpt lat="4.70417" lon="-74.11546"></trkpt>
      <trkpt lat="4.70477" lon="-74.11614"></trkpt>
      <trkpt lat="4.70503" lon="-74.11642"></trkpt>
      <trkpt lat="4.7055" lon="-74.11601"></trkpt>
      <trkpt lat="4.706" lon="-74.11561"></trkpt>
      <trkpt lat="4.70732" lon="-74.11489"></trkpt>
      <trkpt lat="4.70732" lon="-74.1148"></trkpt>
      <trkpt lat="4.70718" lon="-74.11454"></trkpt>
      <trkpt lat="4.70749" lon="-74.11438"></trkpt>
      <trkpt lat="4.70837" lon="-74.11391"></trkpt>
      <trkpt lat="4.70952" lon="-74.11329"></trkpt>
      <trkpt lat="4.71064" lon="-74.11266"></trkpt>
      <trkpt lat="4.71084" lon="-74.11285"></trkpt>
      <trkpt lat="4.71105" lon="-74.11267"></trkpt>
      <trkpt lat="4.71116" lon="-74.1125"></trkpt>
      <trkpt lat="4.71048" lon="-74.11161"></trkpt>
      <trkpt lat="4.70956" lon="-74.11067"></trkpt>
      <trkpt lat="4.70775" lon="-74.10877"></trkpt>
      <trkpt lat="4.70649" lon="-74.10675"></trkpt>
      <trkpt lat="4.70582" lon="-74.10531"></trkpt>
      <trkpt lat="4.70433" lon="-74.10195"></trkpt>
      <trkpt lat="4.70344" lon="-74.1002"></trkpt>
      <trkpt lat="4.70254" lon="-74.09906"></trkpt>
      <trkpt lat="4.70021" lon="-74.09613"></trkpt>
      <trkpt lat="4.69919" lon="-74.09453"></trkpt>
      <trkpt lat="4.69705" lon="-74.09052"></trkpt>
      <trkpt lat="4.69628" lon="-74.08879"></trkpt>
      <trkpt lat="4.69571" lon="-74.08782"></trkpt>
      <trkpt lat="4.69464" lon="-74.08656"></trkpt>
      <trkpt lat="4.69031" lon="-74.08301"></trkpt>
      <trkpt lat="4.68304" lon="-74.07722"></trkpt>
      <trkpt lat="4.6803" lon="-74.07507"></trkpt>
      <trkpt lat="4.67905" lon="-74.07356"></trkpt>
      <trkpt lat="4.67658" lon="-74.06991"></trkpt>
      <trkpt lat="4.67571" lon="-74.0683"></trkpt>
      <trkpt lat="4.6747" lon="-74.06702"></trkpt>
      <trkpt lat="4.67421" lon="-74.06658"></trkpt>
      <trkpt lat="4.67377" lon="-74.06617"></trkpt>
      <trkpt lat="4.6734" lon="-74.06596"></trkpt>
      <trkpt lat="4.67257" lon="-74.06658"></trkpt>
      <trkpt lat="4.67286" lon="-74.06721"></trkpt>
      <trkpt lat="4.67321" lon="-74.06777"></trkpt>
      <trkpt lat="4.6736" lon="-74.06745"></trkpt>
      <trkpt lat="4.6741" lon="-74.06703"></trkpt>
      <trkpt lat="4.67442" lon="-74.06663"></trkpt>
      <trkpt lat="4.67459" lon="-74.06639"></trkpt>
      <trkpt lat="4.67548" lon="-74.06512"></trkpt>
      <trkpt lat="4.67823" lon="-74.06026"></trkpt>
      <trkpt lat="4.67959" lon="-74.05782"></trkpt>
      <trkpt lat="4.67997" lon="-74.05713"></trkpt>
      <trkpt lat="4.6812" lon="-74.05515"></trkpt>
      <trkpt lat="4.68245" lon="-74.05293"></trkpt>
      <trkpt lat="4.68375" lon="-74.05085"></trkpt>
      <trkpt lat="4.68462" lon="-74.04922"></trkpt>
      <trkpt lat="4.68639" lon="-74.04612"></trkpt>
      <trkpt lat="4.68968" lon="-74.04045"></trkpt>
      <trkpt lat="4.69115" lon="-74.03769"></trkpt>
      <trkpt lat="4.69209" lon="-74.03605"></trkpt>
      <trkpt lat="4.69315" lon="-74.0347"></trkpt>
      <trkpt lat="4.69442" lon="-74.03402"></trkpt>
      <trkpt lat="4.69483" lon="-74.0337"></trkpt>
      <trkpt lat="4.69483" lon="-74.03355"></trkpt>
      <trkpt lat="4.69462" lon="-74.03299"></trkpt>
      <trkpt lat="4.6944" lon="-74.03272"></trkpt>
      <trkpt lat="4.69353" lon="-74.03286"></trkpt>
      <trkpt lat="4.69226" lon="-74.03324"></trkpt>
      <trkpt lat="4.69175" lon="-74.03342"></trkpt>
      <trkpt lat="4.6917" lon="-74.03326"></trkpt>
      <trkpt lat="4.69153" lon="-74.03288"></trkpt>
      <trkpt lat="4.69124" lon="-74.03221"></trkpt>
      <trkpt lat="4.6908" lon="-74.03044"></trkpt>
      <trkpt lat="4.69431" lon="-74.02947"></trkpt>
      <trkpt lat="4.69447" lon="-74.02939"></trkpt>
      <trkpt lat="4.69464" lon="-74.02932"></trkpt>
      <trkpt lat="4.69481" lon="-74.02974"></trkpt>
      <trkpt lat="4.69499" lon="-74.03024"></trkpt>
      <trkpt lat="4.6945" lon="-74.03043"></trkpt>
      <trkpt lat="4.69351" lon="-74.03076"></trkpt>
      <trkpt lat="4.69272" lon="-74.03099"></trkpt>
      <trkpt lat="4.69282" lon="-74.03146"></trkpt>
      <trkpt lat="4.69207" lon="-74.03169"></trkpt>
      <trkpt lat="4.69132" lon="-74.03193"></trkpt>
      <trkpt lat="4.69126" lon="-74.03202"></trkpt>
      <trkpt lat="4.69142" lon="-74.03233"></trkpt>
      <trkpt lat="4.69166" lon="-74.03287"></trkpt>
      <trkpt lat="4.69182" lon="-74.03321"></trkpt>
      <trkpt lat="4.69145" lon="-74.03343"></trkpt>
      <trkpt lat="4.69068" lon="-74.03368"></trkpt>
      <trkpt lat="4.6899" lon="-74.03389"></trkpt>
      <trkpt lat="4.68896" lon="-74.03406"></trkpt>
      <trkpt lat="4.68683" lon="-74.03455"></trkpt>
      <trkpt lat="4.68633" lon="-74.03481"></trkpt>
      <trkpt lat="4.68649" lon="-74.03513"></trkpt>
      <trkpt lat="4.68698" lon="-74.03612"></trkpt>
      <trkpt lat="4.68887" lon="-74.03982"></trkpt>
      <trkpt lat="4.69015" lon="-74.03926"></trkpt>
      <trkpt lat="4.69134" lon="-74.03862"></trkpt>
      <trkpt lat="4.69233" lon="-74.03794"></trkpt>
      <trkpt lat="4.69238" lon="-74.03787"></trkpt>
      <trkpt lat="4.69238" lon="-74.03777"></trkpt>
      <trkpt lat="4.69185" lon="-74.03726"></trkpt>
      <trkpt lat="4.68964" lon="-74.0411"></trkpt>
      <trkpt lat="4.68903" lon="-74.04221"></trkpt>
      <trkpt lat="4.68626" lon="-74.04706"></trkpt>
      <trkpt lat="4.68454" lon="-74.0501"></trkpt>
      <trkpt lat="4.68247" lon="-74.05358"></trkpt>
      <trkpt lat="4.68124" lon="-74.05591"></trkpt>
      <trkpt lat="4.68022" lon="-74.05784"></trkpt>
      <trkpt lat="4.67808" lon="-74.06155"></trkpt>
      <trkpt lat="4.677" lon="-74.0635"></trkpt>
      <trkpt lat="4.67685" lon="-74.06389"></trkpt>
      <trkpt lat="4.67691" lon="-74.06395"></trkpt>
      <trkpt lat="4.67738" lon="-74.06428"></trkpt>
      <trkpt lat="4.67826" lon="-74.06574"></trkpt>
      <trkpt lat="4.67751" lon="-74.06628"></trkpt>
      <trkpt lat="4.67646" lon="-74.06693"></trkpt>
      <trkpt lat="4.67614" lon="-74.06725"></trkpt>
      <trkpt lat="4.67644" lon="-74.06784"></trkpt>
      <trkpt lat="4.68031" lon="-74.07371"></trkpt>
      <trkpt lat="4.68083" lon="-74.07429"></trkpt>
      <trkpt lat="4.68168" lon="-74.07496"></trkpt>
      <trkpt lat="4.68315" lon="-74.0761"></trkpt>
      <trkpt lat="4.68653" lon="-74.07877"></trkpt>
      <trkpt lat="4.6942" lon="-74.08484"></trkpt>
      <trkpt lat="4.6955" lon="-74.08599"></trkpt>
      <trkpt lat="4.69629" lon="-74.08697"></trkpt>
      <trkpt lat="4.69693" lon="-74.08805"></trkpt>
      <trkpt lat="4.69745" lon="-74.08872"></trkpt>
      <trkpt lat="4.69751" lon="-74.08872"></trkpt>
      <trkpt lat="4.69763" lon="-74.08871"></trkpt>
      <trkpt lat="4.69777" lon="-74.08856"></trkpt>
      <trkpt lat="4.69779" lon="-74.08829"></trkpt>
      <trkpt lat="4.69746" lon="-74.08789"></trkpt>
      <trkpt lat="4.69713" lon="-74.08796"></trkpt>
      <trkpt lat="4.69657" lon="-74.0884"></trkpt>
      <trkpt lat="4.69577" lon="-74.0895"></trkpt>
      <trkpt lat="4.69518" lon="-74.08983"></trkpt>
      <trkpt lat="4.69498" lon="-74.08993"></trkpt>
      <trkpt lat="4.69442" lon="-74.0901"></trkpt>
      <trkpt lat="4.69261" lon="-74.09102"></trkpt>
      <trkpt lat="4.69082" lon="-74.09217"></trkpt>
      <trkpt lat="4.68904" lon="-74.09344"></trkpt>
      <trkpt lat="4.68502" lon="-74.09625"></trkpt>
      <trkpt lat="4.68026" lon="-74.09979"></trkpt>
      <trkpt lat="4.67696" lon="-74.10214"></trkpt>
      <trkpt lat="4.67564" lon="-74.10278"></trkpt>
      <trkpt lat="4.67367" lon="-74.10457"></trkpt>
      <trkpt lat="4.66717" lon="-74.11095"></trkpt>
      <trkpt lat="4.6541" lon="-74.12229"></trkpt>
      <trkpt lat="4.65339" lon="-74.12302"></trkpt>
      <trkpt lat="4.65245" lon="-74.12382"></trkpt>
      <trkpt lat="4.65167" lon="-74.12452"></trkpt>
      <trkpt lat="4.65159" lon="-74.12489"></trkpt>
      <trkpt lat="4.65221" lon="-74.12558"></trkpt>
      <trkpt lat="4.65217" lon="-74.12598"></trkpt>
      <trkpt lat="4.65217" lon="-74.12612"></trkpt>
      <trkpt lat="4.65246" lon="-74.12646"></trkpt>
      <trkpt lat="4.65366" lon="-74.12764"></trkpt>
      <trkpt lat="4.65551" lon="-74.12941"></trkpt>
      <trkpt lat="4.65842" lon="-74.13213"></trkpt>
      <trkpt lat="4.65972" lon="-74.13337"></trkpt>
      <trkpt lat="4.66341" lon="-74.13652"></trkpt>
      <trkpt lat="4.66485" lon="-74.13766"></trkpt>
      <trkpt lat="4.6668" lon="-74.13892"></trkpt>
      <trkpt lat="4.67007" lon="-74.14107"></trkpt>
      <trkpt lat="4.6726" lon="-74.14282"></trkpt>
      <trkpt lat="4.67293" lon="-74.14303"></trkpt>
      <trkpt lat="4.67334" lon="-74.14254"></trkpt>
      <trkpt lat="4.67399" lon="-74.14177"></trkpt>
      <trkpt lat="4.67401" lon="-74.14174"></trkpt>
      <trkpt lat="4.67404" lon="-74.14171"></trkpt>
      <trkpt lat="4.67409" lon="-74.14165"></trkpt>
      <trkpt lat="4.67411" lon="-74.14163"></trkpt>
      <trkpt lat="4.67429" lon="-74.14142"></trkpt>
      <trkpt lat="4.67412" lon="-74.14162"></trkpt>
      <trkpt lat="4.67411" lon="-74.14163"></trkpt>
      <trkpt lat="4.67411" lon="-74.14163"></trkpt>
      <trkpt lat="4.67409" lon="-74.14165"></trkpt>
      <trkpt lat="4.67407" lon="-74.14168"></trkpt>
      <trkpt lat="4.6734" lon="-74.14248"></trkpt>
      <trkpt lat="4.673" lon="-74.14296"></trkpt>
      <trkpt lat="4.67268" lon="-74.14274"></trkpt>
      <trkpt lat="4.67182" lon="-74.14216"></trkpt>
      <trkpt lat="4.66964" lon="-74.14056"></trkpt>
      <trkpt lat="4.6661" lon="-74.13832"></trkpt>
      <trkpt lat="4.66537" lon="-74.13794"></trkpt>
      <trkpt lat="4.66515" lon="-74.13786"></trkpt>
      <trkpt lat="4.66491" lon="-74.13781"></trkpt>
      <trkpt lat="4.66452" lon="-74.13748"></trkpt>
      <trkpt lat="4.6632" lon="-74.13626"></trkpt>
      <trkpt lat="4.6618" lon="-74.13506"></trkpt>
      <trkpt lat="4.65989" lon="-74.13341"></trkpt>
      <trkpt lat="4.65564" lon="-74.12937"></trkpt>
      <trkpt lat="4.65385" lon="-74.12768"></trkpt>
      <trkpt lat="4.65136" lon="-74.12546"></trkpt>
      <trkpt lat="4.64968" lon="-74.12419"></trkpt>
      <trkpt lat="4.64948" lon="-74.12435"></trkpt>
      <trkpt lat="4.64951" lon="-74.12453"></trkpt>
      <trkpt lat="4.64978" lon="-74.12475"></trkpt>
      <trkpt lat="4.65033" lon="-74.12501"></trkpt>
      <trkpt lat="4.6512" lon="-74.12424"></trkpt>
      <trkpt lat="4.6521" lon="-74.12369"></trkpt>
      <trkpt lat="4.65615" lon="-74.12024"></trkpt>
      <trkpt lat="4.66695" lon="-74.11087"></trkpt>
      <trkpt lat="4.66911" lon="-74.10891"></trkpt>
      <trkpt lat="4.67324" lon="-74.1048"></trkpt>
      <trkpt lat="4.67517" lon="-74.10293"></trkpt>
      <trkpt lat="4.67623" lon="-74.10217"></trkpt>
      <trkpt lat="4.67828" lon="-74.10091"></trkpt>
      <trkpt lat="4.68094" lon="-74.099"></trkpt>
      <trkpt lat="4.68465" lon="-74.09619"></trkpt>
      <trkpt lat="4.68768" lon="-74.09406"></trkpt>
      <trkpt lat="4.69047" lon="-74.09215"></trkpt>
      <trkpt lat="4.69314" lon="-74.09042"></trkpt>
      <trkpt lat="4.69573" lon="-74.08908"></trkpt>
      <trkpt lat="4.69614" lon="-74.08875"></trkpt>
      <trkpt lat="4.6967" lon="-74.08796"></trkpt>
      <trkpt lat="4.6971" lon="-74.08715"></trkpt>
      <trkpt lat="4.6978" lon="-74.08498"></trkpt>
      <trkpt lat="4.69847" lon="-74.08243"></trkpt>
      <trkpt lat="4.69887" lon="-74.08122"></trkpt>
      <trkpt lat="4.69951" lon="-74.08054"></trkpt>
      <trkpt lat="4.70105" lon="-74.08006"></trkpt>
      <trkpt lat="4.70394" lon="-74.07931"></trkpt>
      <trkpt lat="4.70464" lon="-74.07923"></trkpt>
      <trkpt lat="4.70572" lon="-74.0795"></trkpt>
      <trkpt lat="4.70724" lon="-74.08001"></trkpt>
      <trkpt lat="4.70791" lon="-74.08002"></trkpt>
      <trkpt lat="4.71008" lon="-74.07902"></trkpt>
      <trkpt lat="4.71183" lon="-74.0781"></trkpt>
      <trkpt lat="4.71275" lon="-74.07754"></trkpt>
      <trkpt lat="4.71369" lon="-74.07668"></trkpt>
      <trkpt lat="4.71498" lon="-74.07584"></trkpt>
      <trkpt lat="4.71674" lon="-74.07489"></trkpt>
      <trkpt lat="4.71756" lon="-74.07436"></trkpt>
      <trkpt lat="4.7196" lon="-74.07372"></trkpt>
      <trkpt lat="4.72152" lon="-74.07326"></trkpt>
      <trkpt lat="4.72175" lon="-74.07314"></trkpt>
      <trkpt lat="4.72182" lon="-74.07293"></trkpt>
      <trkpt lat="4.7217" lon="-74.07235"></trkpt>
      <trkpt lat="4.72114" lon="-74.07063"></trkpt>
      <trkpt lat="4.72053" lon="-74.06901"></trkpt>
      <trkpt lat="4.71972" lon="-74.06707"></trkpt>
      <trkpt lat="4.72096" lon="-74.06653"></trkpt>
      <trkpt lat="4.72359" lon="-74.06536"></trkpt>
      <trkpt lat="4.72296" lon="-74.06396"></trkpt>
      <trkpt lat="4.72261" lon="-74.0632"></trkpt>
      <trkpt lat="4.72233" lon="-74.0633"></trkpt>
      <trkpt lat="4.72223" lon="-74.06302"></trkpt>
      <trkpt lat="4.72176" lon="-74.06307"></trkpt>
    </trkseg>
  </trk>
</gpx>
