<?xml version="1.0" encoding="UTF-8"?>
<gpx version="1.1" creator="LogiFlow Demo" xmlns="http://www.topografix.com/GPX/1/1">
  <trk>
    <name>v-002 Ruta Sur Bogotá</name>
    <trkseg>      <trkpt lat="4.62815" lon="-74.16193"></trkpt>
      <trkpt lat="4.62808" lon="-74.16188"></trkpt>
      <trkpt lat="4.62788" lon="-74.16206"></trkpt>
      <trkpt lat="4.62784" lon="-74.16205"></trkpt>
      <trkpt lat="4.6278" lon="-74.162"></trkpt>
      <trkpt lat="4.6275" lon="-74.16175"></trkpt>
      <trkpt lat="4.62732" lon="-74.16153"></trkpt>
      <trkpt lat="4.62724" lon="-74.16141"></trkpt>
      <trkpt lat="4.62717" lon="-74.16145"></trkpt>
      <trkpt lat="4.62685" lon="-74.16161"></trkpt>
      <trkpt lat="4.62651" lon="-74.1618"></trkpt>
      <trkpt lat="4.6259" lon="-74.16216"></trkpt>
      <trkpt lat="4.62537" lon="-74.16253"></trkpt>
      <trkpt lat="4.62514" lon="-74.16278"></trkpt>
      <trkpt lat="4.62493" lon="-74.16295"></trkpt>
      <trkpt lat="4.62474" lon="-74.16316"></trkpt>
      <trkpt lat="4.62415" lon="-74.16378"></trkpt>
      <trkpt lat="4.62396" lon="-74.16399"></trkpt>
      <trkpt lat="4.62368" lon="-74.16447"></trkpt>
      <trkpt lat="4.62337" lon="-74.16501"></trkpt>
      <trkpt lat="4.62309" lon="-74.16541"></trkpt>
      <trkpt lat="4.62292" lon="-74.16572"></trkpt>
      <trkpt lat="4.62269" lon="-74.16561"></trkpt>
      <trkpt lat="4.62237" lon="-74.16542"></trkpt>
      <trkpt lat="4.62226" lon="-74.16536"></trkpt>
      <trkpt lat="4.62182" lon="-74.16512"></trkpt>
      <trkpt lat="4.6217" lon="-74.16505"></trkpt>
      <trkpt lat="4.6216" lon="-74.1653"></trkpt>
      <trkpt lat="4.62137" lon="-74.16579"></trkpt>
      <trkpt lat="4.62133" lon="-74.16591"></trkpt>
      <trkpt lat="4.62092" lon="-74.16568"></trkpt>
      <trkpt lat="4.61982" lon="-74.16502"></trkpt>
      <trkpt lat="4.6187" lon="-74.16437"></trkpt>
      <trkpt lat="4.61713" lon="-74.16344"></trkpt>
      <trkpt lat="4.61479" lon="-74.16206"></trkpt>
      <trkpt lat="4.61396" lon="-74.16161"></trkpt>
      <trkpt lat="4.61361" lon="-74.16144"></trkpt>
      <trkpt lat="4.61306" lon="-74.16128"></trkpt>
      <trkpt lat="4.61222" lon="-74.16114"></trkpt>
      <trkpt lat="4.61142" lon="-74.16115"></trkpt>
      <trkpt lat="4.61036" lon="-74.16123"></trkpt>
      <trkpt lat="4.6087" lon="-74.16131"></trkpt>
      <trkpt lat="4.60446" lon="-74.16165"></trkpt>
      <trkpt lat="4.60178" lon="-74.16185"></trkpt>
      <trkpt lat="4.59892" lon="-74.16204"></trkpt>
      <trkpt lat="4.59749" lon="-74.16191"></trkpt>
      <trkpt lat="4.59728" lon="-74.16191"></trkpt>
      <trkpt lat="4.59687" lon="-74.16205"></trkpt>
      <trkpt lat="4.59663" lon="-74.16223"></trkpt>
      <trkpt lat="4.59648" lon="-74.16227"></trkpt>
      <trkpt lat="4.5963" lon="-74.16227"></trkpt>
      <trkpt lat="4.59607" lon="-74.16222"></trkpt>
      <trkpt lat="4.59586" lon="-74.16209"></trkpt>
      <trkpt lat="4.5956" lon="-74.16181"></trkpt>
      <trkpt lat="4.59524" lon="-74.16163"></trkpt>
      <trkpt lat="4.5925" lon="-74.16132"></trkpt>
      <trkpt lat="4.59048" lon="-74.1611"></trkpt>
      <trkpt lat="4.59004" lon="-74.16107"></trkpt>
      <trkpt lat="4.58978" lon="-74.16201"></trkpt>
      <trkpt lat="4.5889" lon="-74.16497"></trkpt>
      <trkpt lat="4.5883" lon="-74.16693"></trkpt>
      <trkpt lat="4.58806" lon="-74.16779"></trkpt>
      <trkpt lat="4.58783" lon="-74.16859"></trkpt>
      <trkpt lat="4.58838" lon="-74.16874"></trkpt>
      <trkpt lat="4.58836" lon="-74.16887"></trkpt>
      <trkpt lat="4.58807" lon="-74.16974"></trkpt>
      <trkpt lat="4.58773" lon="-74.17078"></trkpt>
      <trkpt lat="4.58776" lon="-74.17091"></trkpt>
      <trkpt lat="4.58804" lon="-74.17143"></trkpt>
      <trkpt lat="4.58831" lon="-74.17186"></trkpt>
      <trkpt lat="4.58859" lon="-74.17208"></trkpt>
      <trkpt lat="4.58813" lon="-74.17297"></trkpt>
      <trkpt lat="4.58809" lon="-74.17394"></trkpt>
      <trkpt lat="4.5881" lon="-74.17461"></trkpt>
      <trkpt lat="4.58808" lon="-74.17618"></trkpt>
      <trkpt lat="4.588" lon="-74.17668"></trkpt>
      <trkpt lat="4.58787" lon="-74.17738"></trkpt>
      <trkpt lat="4.58753" lon="-74.1773"></trkpt>
      <trkpt lat="4.5872" lon="-74.17723"></trkpt>
      <trkpt lat="4.58689" lon="-74.17716"></trkpt>
      <trkpt lat="4.58674" lon="-74.17713"></trkpt>
      <trkpt lat="4.58668" lon="-74.17739"></trkpt>
      <trkpt lat="4.58659" lon="-74.17793"></trkpt>
      <trkpt lat="4.58655" lon="-74.17835"></trkpt>
      <trkpt lat="4.58655" lon="-74.1789"></trkpt>
      <trkpt lat="4.58656" lon="-74.18002"></trkpt>
      <trkpt lat="4.58652" lon="-74.18011"></trkpt>
      <trkpt lat="4.58637" lon="-74.18041"></trkpt>
      <trkpt lat="4.58628" lon="-74.18065"></trkpt>
      <trkpt lat="4.58639" lon="-74.18068"></trkpt>
      <trkpt lat="4.58655" lon="-74.18074"></trkpt>
      <trkpt lat="4.58688" lon="-74.18088"></trkpt>
      <trkpt lat="4.58704" lon="-74.18094"></trkpt>
      <trkpt lat="4.58682" lon="-74.18148"></trkpt>
      <trkpt lat="4.58672" lon="-74.18171"></trkpt>
      <trkpt lat="4.58703" lon="-74.18184"></trkpt>
      <trkpt lat="4.58638" lon="-74.18152"></trkpt>
      <trkpt lat="4.58597" lon="-74.18132"></trkpt>
      <trkpt lat="4.58618" lon="-74.18083"></trkpt>
      <trkpt lat="4.58658" lon="-74.18002"></trkpt>
      <trkpt lat="4.58663" lon="-74.17992"></trkpt>
      <trkpt lat="4.58663" lon="-74.17879"></trkpt>
      <trkpt lat="4.58663" lon="-74.17823"></trkpt>
      <trkpt lat="4.58668" lon="-74.1778"></trkpt>
      <trkpt lat="4.58678" lon="-74.17725"></trkpt>
      <trkpt lat="4.58685" lon="-74.17698"></trkpt>
      <trkpt lat="4.58701" lon="-74.177"></trkpt>
      <trkpt lat="4.58733" lon="-74.17706"></trkpt>
      <trkpt lat="4.58767" lon="-74.17712"></trkpt>
      <trkpt lat="4.58802" lon="-74.17719"></trkpt>
      <trkpt lat="4.58816" lon="-74.17648"></trkpt>
      <trkpt lat="4.58825" lon="-74.17597"></trkpt>
      <trkpt lat="4.58825" lon="-74.17521"></trkpt>
      <trkpt lat="4.58828" lon="-74.17439"></trkpt>
      <trkpt lat="4.58828" lon="-74.17371"></trkpt>
      <trkpt lat="4.58833" lon="-74.17273"></trkpt>
      <trkpt lat="4.5888" lon="-74.17183"></trkpt>
      <trkpt lat="4.58993" lon="-74.1727"></trkpt>
      <trkpt lat="4.59011" lon="-74.17283"></trkpt>
      <trkpt lat="4.59024" lon="-74.17278"></trkpt>
      <trkpt lat="4.59058" lon="-74.17264"></trkpt>
      <trkpt lat="4.5916" lon="-74.17201"></trkpt>
      <trkpt lat="4.593" lon="-74.17117"></trkpt>
      <trkpt lat="4.59359" lon="-74.17085"></trkpt>
      <trkpt lat="4.59452" lon="-74.17029"></trkpt>
      <trkpt lat="4.59541" lon="-74.16964"></trkpt>
      <trkpt lat="4.59635" lon="-74.16901"></trkpt>
      <trkpt lat="4.59659" lon="-74.1689"></trkpt>
      <trkpt lat="4.59656" lon="-74.16858"></trkpt>
      <trkpt lat="4.59654" lon="-74.1679"></trkpt>
      <trkpt lat="4.59654" lon="-74.16727"></trkpt>
      <trkpt lat="4.59654" lon="-74.16456"></trkpt>
      <trkpt lat="4.59652" lon="-74.16412"></trkpt>
      <trkpt lat="4.5965" lon="-74.16401"></trkpt>
      <trkpt lat="4.59648" lon="-74.16331"></trkpt>
      <trkpt lat="4.59648" lon="-74.16214"></trkpt>
      <trkpt lat="4.59646" lon="-74.16196"></trkpt>
      <trkpt lat="4.59637" lon="-74.16176"></trkpt>
      <trkpt lat="4.59623" lon="-74.16157"></trkpt>
      <trkpt lat="4.59613" lon="-74.16124"></trkpt>
      <trkpt lat="4.59618" lon="-74.16103"></trkpt>
      <trkpt lat="4.59636" lon="-74.16077"></trkpt>
      <trkpt lat="4.59656" lon="-74.16066"></trkpt>
      <trkpt lat="4.59678" lon="-74.16062"></trkpt>
      <trkpt lat="4.59713" lon="-74.1607"></trkpt>
      <trkpt lat="4.59731" lon="-74.16085"></trkpt>
      <trkpt lat="4.59744" lon="-74.16103"></trkpt>
      <trkpt lat="4.59783" lon="-74.16127"></trkpt>
      <trkpt lat="4.59803" lon="-74.1613"></trkpt>
      <trkpt lat="4.59875" lon="-74.16137"></trkpt>
      <trkpt lat="4.59953" lon="-74.16141"></trkpt>
      <trkpt lat="4.6007" lon="-74.16132"></trkpt>
      <trkpt lat="4.60361" lon="-74.1611"></trkpt>
      <trkpt lat="4.60499" lon="-74.16102"></trkpt>
      <trkpt lat="4.60701" lon="-74.16088"></trkpt>
      <trkpt lat="4.60884" lon="-74.16072"></trkpt>
      <trkpt lat="4.60894" lon="-74.16056"></trkpt>
      <trkpt lat="4.60894" lon="-74.16046"></trkpt>
      <trkpt lat="4.60887" lon="-74.16025"></trkpt>
      <trkpt lat="4.60883" lon="-74.16015"></trkpt>
      <trkpt lat="4.60892" lon="-74.16007"></trkpt>
      <trkpt lat="4.60936" lon="-74.15963"></trkpt>
      <trkpt lat="4.60944" lon="-74.15956"></trkpt>
      <trkpt lat="4.61005" lon="-74.15894"></trkpt>
      <trkpt lat="4.61051" lon="-74.15848"></trkpt>
      <trkpt lat="4.61208" lon="-74.1565"></trkpt>
      <trkpt lat="4.61233" lon="-74.15616"></trkpt>
      <trkpt lat="4.61248" lon="-74.15599"></trkpt>
      <trkpt lat="4.61138" lon="-74.15505"></trkpt>
      <trkpt lat="4.61124" lon="-74.15492"></trkpt>
      <trkpt lat="4.61139" lon="-74.15504"></trkpt>
      <trkpt lat="4.61193" lon="-74.15548"></trkpt>
      <trkpt lat="4.6125" lon="-74.15596"></trkpt>
      <trkpt lat="4.61266" lon="-74.15579"></trkpt>
      <trkpt lat="4.61299" lon="-74.15541"></trkpt>
      <trkpt lat="4.61334" lon="-74.15498"></trkpt>
      <trkpt lat="4.6134" lon="-74.15499"></trkpt>
      <trkpt lat="4.61413" lon="-74.15533"></trkpt>
      <trkpt lat="4.61421" lon="-74.15517"></trkpt>
      <trkpt lat="4.6143" lon="-74.15507"></trkpt>
      <trkpt lat="4.61443" lon="-74.15507"></trkpt>
      <trkpt lat="4.61481" lon="-74.15516"></trkpt>
      <trkpt lat="4.61495" lon="-74.15516"></trkpt>
      <trkpt lat="4.61528" lon="-74.15486"></trkpt>
      <trkpt lat="4.61539" lon="-74.15479"></trkpt>
      <trkpt lat="4.61553" lon="-74.15481"></trkpt>
      <trkpt lat="4.61553" lon="-74.1548"></trkpt>
      <trkpt lat="4.61553" lon="-74.15479"></trkpt>
      <trkpt lat="4.61554" lon="-74.15477"></trkpt>
      <trkpt lat="4.61557" lon="-74.15475"></trkpt>
      <trkpt lat="4.61561" lon="-74.15475"></trkpt>
      <trkpt lat="4.61564" lon="-74.15477"></trkpt>
      <trkpt lat="4.61575" lon="-74.15481"></trkpt>
      <trkpt lat="4.61603" lon="-74.15486"></trkpt>
      <trkpt lat="4.61628" lon="-74.1549"></trkpt>
      <trkpt lat="4.6163" lon="-74.15479"></trkpt>
      <trkpt lat="4.6164" lon="-74.15437"></trkpt>
      <trkpt lat="4.61646" lon="-74.15413"></trkpt>
      <trkpt lat="4.61661" lon="-74.15353"></trkpt>
      <trkpt lat="4.61757" lon="-74.15342"></trkpt>
      <trkpt lat="4.6177" lon="-74.15342"></trkpt>
      <trkpt lat="4.61776" lon="-74.15342"></trkpt>
      <trkpt lat="4.61785" lon="-74.15288"></trkpt>
      <trkpt lat="4.61796" lon="-74.15218"></trkpt>
      <trkpt lat="4.61808" lon="-74.15147"></trkpt>
      <trkpt lat="4.61841" lon="-74.14955"></trkpt>
      <trkpt lat="4.61859" lon="-74.14852"></trkpt>
      <trkpt lat="4.61862" lon="-74.14839"></trkpt>
      <trkpt lat="4.6187" lon="-74.1484"></trkpt>
      <trkpt lat="4.61893" lon="-74.14845"></trkpt>
      <trkpt lat="4.61922" lon="-74.14849"></trkpt>
      <trkpt lat="4.61963" lon="-74.14855"></trkpt>
      <trkpt lat="4.61974" lon="-74.14854"></trkpt>
      <trkpt lat="4.61992" lon="-74.14845"></trkpt>
      <trkpt lat="4.62087" lon="-74.14758"></trkpt>
      <trkpt lat="4.6219" lon="-74.14664"></trkpt>
      <trkpt lat="4.62311" lon="-74.14553"></trkpt>
      <trkpt lat="4.62423" lon="-74.14456"></trkpt>
      <trkpt lat="4.6243" lon="-74.14448"></trkpt>
      <trkpt lat="4.62453" lon="-74.14471"></trkpt>
      <trkpt lat="4.62511" lon="-74.14535"></trkpt>
      <trkpt lat="4.62532" lon="-74.14516"></trkpt>
      <trkpt lat="4.62594" lon="-74.14461"></trkpt>
      <trkpt lat="4.62638" lon="-74.14422"></trkpt>
      <trkpt lat="4.62711" lon="-74.14352"></trkpt>
      <trkpt lat="4.62726" lon="-74.14331"></trkpt>
      <trkpt lat="4.62763" lon="-74.14246"></trkpt>
      <trkpt lat="4.62775" lon="-74.1422"></trkpt>
      <trkpt lat="4.62787" lon="-74.1422"></trkpt>
      <trkpt lat="4.62805" lon="-74.14218"></trkpt>
      <trkpt lat="4.62895" lon="-74.14209"></trkpt>
      <trkpt lat="4.63124" lon="-74.14185"></trkpt>
      <trkpt lat="4.63167" lon="-74.14182"></trkpt>
      <trkpt lat="4.63157" lon="-74.14111"></trkpt>
      <trkpt lat="4.63147" lon="-74.13977"></trkpt>
      <trkpt lat="4.63144" lon="-74.13789"></trkpt>
      <trkpt lat="4.63133" lon="-74.1366"></trkpt>
      <trkpt lat="4.63123" lon="-74.13552"></trkpt>
      <trkpt lat="4.63114" lon="-74.13503"></trkpt>
      <trkpt lat="4.63105" lon="-74.13451"></trkpt>
      <trkpt lat="4.63092" lon="-74.13379"></trkpt>
      <trkpt lat="4.63083" lon="-74.13267"></trkpt>
      <trkpt lat="4.63068" lon="-74.13107"></trkpt>
      <trkpt lat="4.63061" lon="-74.13044"></trkpt>
      <trkpt lat="4.63046" lon="-74.1288"></trkpt>
      <trkpt lat="4.6304" lon="-74.12721"></trkpt>
      <trkpt lat="4.63016" lon="-74.12461"></trkpt>
      <trkpt lat="4.63019" lon="-74.1243"></trkpt>
      <trkpt lat="4.63022" lon="-74.12307"></trkpt>
      <trkpt lat="4.63015" lon="-74.12174"></trkpt>
      <trkpt lat="4.63005" lon="-74.12069"></trkpt>
      <trkpt lat="4.62994" lon="-74.11965"></trkpt>
      <trkpt lat="4.62956" lon="-74.11803"></trkpt>
      <trkpt lat="4.62945" lon="-74.11717"></trkpt>
      <trkpt lat="4.62922" lon="-74.11488"></trkpt>
      <trkpt lat="4.62855" lon="-74.10833"></trkpt>
      <trkpt lat="4.62845" lon="-74.10723"></trkpt>
      <trkpt lat="4.62841" lon="-74.10715"></trkpt>
      <trkpt lat="4.62814" lon="-74.10677"></trkpt>
      <trkpt lat="4.6278" lon="-74.10648"></trkpt>
      <trkpt lat="4.62759" lon="-74.10617"></trkpt>
      <trkpt lat="4.62754" lon="-74.10589"></trkpt>
      <trkpt lat="4.62754" lon="-74.10556"></trkpt>
      <trkpt lat="4.62762" lon="-74.10531"></trkpt>
      <trkpt lat="4.6278" lon="-74.10501"></trkpt>
      <trkpt lat="4.62803" lon="-74.10474"></trkpt>
      <trkpt lat="4.62807" lon="-74.10461"></trkpt>
      <trkpt lat="4.62814" lon="-74.10445"></trkpt>
      <trkpt lat="4.62817" lon="-74.104"></trkpt>
      <trkpt lat="4.62824" lon="-74.10381"></trkpt>
      <trkpt lat="4.62816" lon="-74.10296"></trkpt>
      <trkpt lat="4.628" lon="-74.10162"></trkpt>
      <trkpt lat="4.62783" lon="-74.09981"></trkpt>
      <trkpt lat="4.62771" lon="-74.09906"></trkpt>
      <trkpt lat="4.62767" lon="-74.09888"></trkpt>
      <trkpt lat="4.62773" lon="-74.0988"></trkpt>
      <trkpt lat="4.62817" lon="-74.09852"></trkpt>
      <trkpt lat="4.62996" lon="-74.09713"></trkpt>
      <trkpt lat="4.6309" lon="-74.09637"></trkpt>
      <trkpt lat="4.63186" lon="-74.09752"></trkpt>
      <trkpt lat="4.63237" lon="-74.09813"></trkpt>
      <trkpt lat="4.63286" lon="-74.09869"></trkpt>
      <trkpt lat="4.63376" lon="-74.09953"></trkpt>
      <trkpt lat="4.63519" lon="-74.10095"></trkpt>
      <trkpt lat="4.6357" lon="-74.10055"></trkpt>
      <trkpt lat="4.63678" lon="-74.09971"></trkpt>
      <trkpt lat="4.63743" lon="-74.09906"></trkpt>
      <trkpt lat="4.63787" lon="-74.09847"></trkpt>
      <trkpt lat="4.63857" lon="-74.09739"></trkpt>
      <trkpt lat="4.64011" lon="-74.095"></trkpt>
      <trkpt lat="4.64123" lon="-74.09328"></trkpt>
      <trkpt lat="4.64226" lon="-74.09162"></trkpt>
      <trkpt lat="4.64295" lon="-74.09051"></trkpt>
      <trkpt lat="4.64351" lon="-74.08964"></trkpt>
      <trkpt lat="4.64264" lon="-74.08907"></trkpt>
      <trkpt lat="4.6411" lon="-74.08807"></trkpt>
      <trkpt lat="4.64064" lon="-74.08777"></trkpt>
      <trkpt lat="4.64018" lon="-74.08738"></trkpt>
      <trkpt lat="4.64004" lon="-74.08713"></trkpt>
      <trkpt lat="4.63961" lon="-74.08578"></trkpt>
      <trkpt lat="4.63937" lon="-74.08498"></trkpt>
      <trkpt lat="4.63927" lon="-74.08469"></trkpt>
      <trkpt lat="4.63931" lon="-74.08467"></trkpt>
      <trkpt lat="4.63933" lon="-74.08464"></trkpt>
      <trkpt lat="4.63953" lon="-74.08429"></trkpt>
      <trkpt lat="4.63998" lon="-74.08344"></trkpt>
      <trkpt lat="4.64062" lon="-74.08225"></trkpt>
      <trkpt lat="4.64071" lon="-74.08218"></trkpt>
      <trkpt lat="4.64117" lon="-74.08208"></trkpt>
      <trkpt lat="4.64145" lon="-74.08286"></trkpt>
      <trkpt lat="4.64076" lon="-74.08417"></trkpt>
      <trkpt lat="4.64034" lon="-74.08497"></trkpt>
      <trkpt lat="4.64034" lon="-74.085"></trkpt>
      <trkpt lat="4.63952" lon="-74.08523"></trkpt>
      <trkpt lat="4.63853" lon="-74.08549"></trkpt>
      <trkpt lat="4.63806" lon="-74.08546"></trkpt>
      <trkpt lat="4.63719" lon="-74.08525"></trkpt>
      <trkpt lat="4.63658" lon="-74.08494"></trkpt>
      <trkpt lat="4.63608" lon="-74.08465"></trkpt>
      <trkpt lat="4.63565" lon="-74.08434"></trkpt>
      <trkpt lat="4.63535" lon="-74.08406"></trkpt>
      <trkpt lat="4.63495" lon="-74.08358"></trkpt>
      <trkpt lat="4.63478" lon="-74.08328"></trkpt>
      <trkpt lat="4.6346" lon="-74.08287"></trkpt>
      <trkpt lat="4.63448" lon="-74.08241"></trkpt>
      <trkpt lat="4.63446" lon="-74.08192"></trkpt>
      <trkpt lat="4.63489" lon="-74.08106"></trkpt>
      <trkpt lat="4.63536" lon="-74.08019"></trkpt>
      <trkpt lat="4.63565" lon="-74.07965"></trkpt>
      <trkpt lat="4.63577" lon="-74.0795"></trkpt>
      <trkpt lat="4.63642" lon="-74.07922"></trkpt>
      <trkpt lat="4.63668" lon="-74.07914"></trkpt>
      <trkpt lat="4.63703" lon="-74.07907"></trkpt>
      <trkpt lat="4.63744" lon="-74.07906"></trkpt>
      <trkpt lat="4.63822" lon="-74.07915"></trkpt>
      <trkpt lat="4.63831" lon="-74.07916"></trkpt>
      <trkpt lat="4.63859" lon="-74.07886"></trkpt>
      <trkpt lat="4.63869" lon="-74.07869"></trkpt>
      <trkpt lat="4.63856" lon="-74.07839"></trkpt>
      <trkpt lat="4.63755" lon="-74.07844"></trkpt>
      <trkpt lat="4.63687" lon="-74.07844"></trkpt>
      <trkpt lat="4.63547" lon="-74.07856"></trkpt>
      <trkpt lat="4.63367" lon="-74.07866"></trkpt>
      <trkpt lat="4.63177" lon="-74.07897"></trkpt>
      <trkpt lat="4.6313" lon="-74.07905"></trkpt>
      <trkpt lat="4.63115" lon="-74.07904"></trkpt>
      <trkpt lat="4.63029" lon="-74.07926"></trkpt>
      <trkpt lat="4.62926" lon="-74.07972"></trkpt>
      <trkpt lat="4.62891" lon="-74.07992"></trkpt>
      <trkpt lat="4.62877" lon="-74.08001"></trkpt>
      <trkpt lat="4.62864" lon="-74.08021"></trkpt>
      <trkpt lat="4.62862" lon="-74.08029"></trkpt>
      <trkpt lat="4.62866" lon="-74.08042"></trkpt>
      <trkpt lat="4.62873" lon="-74.0805"></trkpt>
      <trkpt lat="4.62884" lon="-74.08053"></trkpt>
      <trkpt lat="4.62894" lon="-74.08053"></trkpt>
      <trkpt lat="4.62909" lon="-74.08042"></trkpt>
      <trkpt lat="4.62911" lon="-74.08032"></trkpt>
      <trkpt lat="4.62909" lon="-74.08022"></trkpt>
      <trkpt lat="4.62906" lon="-74.0801"></trkpt>
      <trkpt lat="4.62874" lon="-74.07987"></trkpt>
      <trkpt lat="4.62759" lon="-74.07911"></trkpt>
      <trkpt lat="4.62522" lon="-74.07743"></trkpt>
      <trkpt lat="4.62367" lon="-74.0763"></trkpt>
      <trkpt lat="4.62321" lon="-74.07593"></trkpt>
      <trkpt lat="4.62163" lon="-74.07481"></trkpt>
      <trkpt lat="4.61927" lon="-74.07318"></trkpt>
      <trkpt lat="4.61868" lon="-74.07272"></trkpt>
      <trkpt lat="4.61709" lon="-74.07161"></trkpt>
      <trkpt lat="4.61623" lon="-74.071"></trkpt>
      <trkpt lat="4.6162" lon="-74.071"></trkpt>
      <trkpt lat="4.61583" lon="-74.07083"></trkpt>
      <trkpt lat="4.61564" lon="-74.07076"></trkpt>
      <trkpt lat="4.61456" lon="-74.07025"></trkpt>
      <trkpt lat="4.61423" lon="-74.07044"></trkpt>
      <trkpt lat="4.61239" lon="-74.07197"></trkpt>
      <trkpt lat="4.61041" lon="-74.0736"></trkpt>
      <trkpt lat="4.60984" lon="-74.07406"></trkpt>
      <trkpt lat="4.60867" lon="-74.07256"></trkpt>
      <trkpt lat="4.60761" lon="-74.07102"></trkpt>
      <trkpt lat="4.6053" lon="-74.07231"></trkpt>
      <trkpt lat="4.60411" lon="-74.07291"></trkpt>
      <trkpt lat="4.60299" lon="-74.07359"></trkpt>
      <trkpt lat="4.60206" lon="-74.07411"></trkpt>
      <trkpt lat="4.6003" lon="-74.07511"></trkpt>
      <trkpt lat="4.60023" lon="-74.07515"></trkpt>
    </trkseg>
  </trk>
</gpx>
